[
  { "name": "John Doe", "address": "123 Elm Street", "state": "CA", "zip_code": "90001", "phone": "555-1234" },
  { "name": "Jane Smith", "address": "456 Oak Street", "state": "NY", "zip_code": "10001", "phone": "555-5678" },
  { "name": "Alice Johnson", "address": "789 Pine Street", "state": "TX", "zip_code": "73301", "phone": "555-9101" },
  { "name": "Chris Evans", "address": "101 Maple Avenue", "state": "FL", "zip_code": "32003", "phone": "555-1111" },
  { "name": "Bruce Wayne", "address": "456 Wayne Manor", "state": "NJ", "zip_code": "07001", "phone": "555-2222" },
  { "name": "Clark Kent", "address": "789 Kent Farm", "state": "KS", "zip_code": "66001", "phone": "555-3333" },
  { "name": "Diana Prince", "address": "101 Themyscira Street", "state": "NY", "zip_code": "10002", "phone": "555-4444" },
  { "name": "Barry Allen", "address": "123 Speedster Lane", "state": "CA", "zip_code": "90002", "phone": "555-5555" },
  { "name": "Hal Jordan", "address": "456 Lantern Drive", "state": "TX", "zip_code": "73302", "phone": "555-6666" },
  { "name": "Arthur Curry", "address": "789 Atlantis Avenue", "state": "FL", "zip_code": "32004", "phone": "555-7777" },
  { "name": "Peter Parker", "address": "101 Queens Boulevard", "state": "NY", "zip_code": "10003", "phone": "555-8888" },
  { "name": "Tony Stark", "address": "456 Stark Tower", "state": "CA", "zip_code": "90003", "phone": "555-9999" },
  { "name": "Steve Rogers", "address": "789 Brooklyn Avenue", "state": "NY", "zip_code": "10004", "phone": "555-0000" },
  { "name": "Natasha Romanoff", "address": "123 Red Room", "state": "NY", "zip_code": "10005", "phone": "555-1112" },
  { "name": "Wanda Maximoff", "address": "456 Scarlet Street", "state": "NJ", "zip_code": "07002", "phone": "555-2223" },
  { "name": "Stephen Strange", "address": "789 Bleecker Street", "state": "NY", "zip_code": "10006", "phone": "555-3334" },
  { "name": "Bruce Banner", "address": "101 Hulk Lane", "state": "CA", "zip_code": "90004", "phone": "555-4445" },
  { "name": "Thor Odinson", "address": "456 Asgard Avenue", "state": "NY", "zip_code": "10007", "phone": "555-5556" },
  { "name": "Loki Laufeyson", "address": "789 Trickster Way", "state": "CA", "zip_code": "90005", "phone": "555-6667" },
  { "name": "T'Challa", "address": "101 Wakanda Road", "state": "NY", "zip_code": "10008", "phone": "555-7778" },
  { "name": "Scott Lang", "address": "456 Antman Avenue", "state": "CA", "zip_code": "90006", "phone": "555-8889" },
  { "name": "Hope van Dyne", "address": "789 Wasp Lane", "state": "NY", "zip_code": "10009", "phone": "555-9990" },
  { "name": "Sam Wilson", "address": "101 Falcon Street", "state": "CA", "zip_code": "90007", "phone": "555-0001" },
  { "name": "Bucky Barnes", "address": "456 Winter Soldier", "state": "NY", "zip_code": "10010", "phone": "555-1113" },
  { "name": "Vision", "address": "789 Synthezoid Avenue", "state": "CA", "zip_code": "90008", "phone": "555-2224" },
  { "name": "Clint Barton", "address": "101 Arrow Road", "state": "NY", "zip_code": "10011", "phone": "555-3335" },
  { "name": "Carol Danvers", "address": "456 Captain Marvel", "state": "NJ", "zip_code": "07003", "phone": "555-4446" },
  { "name": "Nick Fury", "address": "789 Shield Street", "state": "NY", "zip_code": "10012", "phone": "555-5557" },
  { "name": "Phil Coulson", "address": "101 Agent Avenue", "state": "NY", "zip_code": "10013", "phone": "555-6668" },
  { "name": "Maria Hill", "address": "456 Director Drive", "state": "CA", "zip_code": "90009", "phone": "555-7779" }
]
